SCD 1                   
1 22490U 93009B   24226.79963587  .00001460  00000+0  35268-3 0  9995
2 22490  24.9709  37.3211 0042240 224.3740 158.3623 14.45378157663706
TECHSAT 1B (GO-32)      
1 25397U 98043D   24227.20241704  .00000575  00000+0  26986-3 0  9997
2 25397  98.9264 194.8059 0001627  35.2242 324.9044 14.24090424355892
SCD 2                   
1 25504U 98060A   24226.77136189  .00001343  00000+0  32773-3 0  9992
2 25504  24.9945 257.3090 0016795 219.3066 302.6078 14.44849392362940
LANDSAT 7               
1 25682U 99020A   24227.30648441  .00002302  00000+0  48011-3 0  9993
2 25682  97.8860 251.3491 0001668 105.4193 309.9939 14.60826773347686
DLR-TUBSAT              
1 25757U 99029B   24226.98338651  .00000748  00000+0  19682-3 0  9991
2 25757  98.5909 192.1975 0013317 232.3522 127.6465 14.51960081335788
TERRA                   
1 25994U 99068A   24227.28138986  .00002467  00000+0  52396-3 0  9999
2 25994  98.0440 289.0552 0002481 148.3862 286.2776 14.59944030311646
MAROC-TUBSAT            
1 27004U 01056D   24226.95860950  .00000045  00000+0  10317-3 0  9996
2 27004  99.7412  22.1012 0020564  66.7689  52.1053 13.70211564134121
AQUA                    
1 27424U 02022A   24227.25050306  .00004842  00000+0  10265-2 0  9996
2 27424  98.3322 176.8570 0000933  63.1524  73.4037 14.59636540185188
IRS-P6 (RESOURCESAT-1)  
1 28051U 03046A   24226.90210672  .00001601  00000+0  55726-3 0  9997
2 28051  98.2896 281.9732 0064563 195.5965 337.6674 14.35545821 84079
SHIYAN 1 (SY-1)         
1 28220U 04012A   24226.82187304  .00020713  00000+0  11718-2 0  9992
2 28220  97.9636 257.0600 0009385 184.4240 175.6908 15.13056124108704
AURA                    
1 28376U 04026A   24226.92063002  .00004488  00000+0  96833-3 0  9991
2 28376  98.2519 171.3702 0000610  98.0271 262.0997 14.58861273 68090
IRS-P5 (CARTOSAT-1)     
1 28649U 05017A   24226.87444964  .00006389  00000+0  71238-3 0  9993
2 28649  97.6106 267.9415 0002734 112.5000 247.6506 14.87368623 43734
SINAH 1                 
1 28893U 05043D   24226.92689583  .00002435  00000+0  48508-3 0  9999
2 28893  98.2001 350.3543 0014031 218.4244 141.5960 14.62879811  2183
EROS B                  
1 29079U 06014A   24226.81481266  .00036655  00000+0  18398-2 0  9995
2 29079  97.3353 339.1627 0008896  95.6556 264.5693 15.17171573 16254
RESURS-DK 1             
1 29228U 06021A   24227.27821263  .00007692  00000+0  50746-3 0  9998
2 29228  69.9346 272.7081 0007560 278.2969  81.7337 15.07805211  1101
ARIRANG-2 (KOMPSAT-2)   
1 29268U 06031A   24226.88576687  .00001670  00000+0  32901-3 0  9999
2 29268  97.8601  72.5214 0015820  49.0358   8.0287 14.63676235963080
LAPAN-TUBSAT            
1 29709U 07001A   24226.85679970  .00002719  00000+0  33140-3 0  9994
2 29709  98.0731 202.7275 0011765 207.2381 152.8217 14.84191390951354
HAIYANG-1B              
1 31113U 07010A   24226.93633463  .00000618  00000+0  25209-3 0  9995
2 31113  98.2975 226.3348 0014468  39.2901 320.9330 14.30652301904497
COSMO-SKYMED 1          
1 31598U 07023A   24226.78986728  .00002947  00000+0  37646-3 0  9999
2 31598  97.8891  49.0929 0001459  87.2595 272.8785 14.82178217929659
TERRASAR-X              
1 31698U 07026A   24225.49107002  .00010753  00000+0  51453-3 0  9996
2 31698  97.4469 231.8455 0001778  84.7527 275.3910 15.19149074950947
WORLDVIEW-1 (WV-1)      
1 32060U 07041A   24226.91223901  .00020735  00000+0  83442-3 0  9996
2 32060  97.3806 345.3731 0004337 108.9064 251.2644 15.24905093940596
YAOGAN-3                
1 32289U 07055A   24226.87350287  .00007964  00000+0  92393-3 0  9991
2 32289  97.8857 251.6361 0001988 102.7203 257.4234 14.85682754905837
COSMO-SKYMED 2          
1 32376U 07059A   24226.82363979  .00002419  00000+0  31037-3 0  9997
2 32376  97.8890  49.1218 0001271  81.3173 278.8184 14.82157155902405
RADARSAT-2              
1 32382U 07061A   24226.82777882  .00000360  00000+0  15670-3 0  9997
2 32382  98.5791 232.3680 0001192  91.6313 268.5006 14.29977524869863
CARTOSAT-2A             
1 32783U 08021A   24226.82787043  .00004337  00000+0  59615-3 0  9994
2 32783  97.8617 283.9624 0013335 131.5838 228.6519 14.78770841879432
HUANJING 1A (HJ-1A)     
1 33320U 08041A   24226.82977241  .00006524  00000+0  85917-3 0  9999
2 33320  97.6329 231.0097 0020374 178.0770 182.0525 14.80308100858781
HUANJING 1B (HJ-1B)     
1 33321U 08041B   24226.82351781  .00004304  00000+0  56195-3 0  9995
2 33321  97.6275 235.5284 0037041 225.7640 134.0530 14.80515445858813
GEOEYE 1                
1 33331U 08042A   24227.24256131  .00003043  00000+0  57993-3 0  9993
2 33331  98.1270 298.8649 0006475 353.5761   6.5358 14.64741401851812
THEOS                   
1 33396U 08049A   24226.79794940  .00000406  00000+0  21090-3 0  9994
2 33396  98.6538 291.4299 0001249  97.1882 262.9436 14.20106832822531
COSMO-SKYMED 3          
1 33412U 08054A   24226.80631129  .00011886  00000+0  99913-3 0  9993
2 33412  97.8738  64.0251 0016097  23.6894 336.5066 14.98345667855910
YAOGAN-4                
1 33446U 08061A   24227.23711018  .00005780  00000+0  76675-3 0  9998
2 33446  97.8781 158.0253 0016704  96.6482 263.6632 14.80110686846145
GOSAT (IBUKI)           
1 33492U 09002A   24226.59488343  .00004636  00000+0  82536-3 0  9997
2 33492  98.0426 337.0427 0001354  88.4631 271.6728 14.67543698832819
YAOGAN-6                
1 34839U 09021A   24227.03906551  .00039223  00000+0  66655-3 0  9994
2 34839  97.1749 194.2151 0013460 334.3835  25.6749 15.51249226852412
DEIMOS-1                
1 35681U 09041A   24226.78447832  .00002920  00000+0  45664-3 0  9996
2 35681  97.6831  45.6307 0001609 144.7347 215.3969 14.73488764807798
DUBAISAT-1              
1 35682U 09041B   24227.27163828  .00005683  00000+0  91353-3 0  9997
2 35682  97.9137   1.9056 0012235  69.9917 290.2606 14.71907249806189
OCEANSAT-2              
1 35931U 09051A   24226.84049410  .00000536  00000+0  39335-3 0  9991
2 35931  98.2613 270.0297 0015871 340.4733  19.5823 13.99488873785283
WORLDVIEW-2 (WV-2)      
1 35946U 09055A   24227.27653694  .00000870  00000+0  30896-3 0  9998
2 35946  98.4763 299.1366 0005194  69.3498 290.8245 14.36860454779239
SMOS                    
1 36036U 09059A   24226.95264586  .00001503  00000+0  49349-3 0  9992
2 36036  98.4440  53.0558 0001180  95.3287 264.8036 14.39756722776723
YAOGAN-7                
1 36110U 09069A   24227.16009149  .00002781  00000+0  40555-3 0  9991
2 36110  98.0973 103.1568 0026418  44.7043 315.6289 14.76397091790441
TANDEM-X                
1 36605U 10030A   24225.49106903  .00008786  00000+0  42109-3 0  9998
2 36605  97.4477 231.8458 0001833  98.4199 261.7244 15.19148549784367
CARTOSAT-2B             
1 36795U 10035A   24226.79664906  .00004571  00000+0  62946-3 0  9998
2 36795  97.8557 283.5283 0011715 207.2022 152.8577 14.78682840760561
YAOGAN-10               
1 36834U 10038A   24226.88818836  .00003514  00000+0  43853-3 0  9990
2 36834  97.9480 243.6992 0001739  98.0210 345.3964 14.83031050757556
COSMO-SKYMED 4          
1 37216U 10060A   24226.83629471  .00002442  00000+0  31303-3 0  9996
2 37216  97.8892  49.1396 0001518  87.5808 272.5579 14.82174209744973
RESOURCESAT-2           
1 37387U 11015A   24226.80217406  .00000808  00000+0  38709-3 0  9995
2 37387  98.5733 290.9493 0003424 323.1218  36.9724 14.21695307690648
HAIYANG-2A              
1 37781U 11043A   24227.24822406  .00000074  00000+0  11630-3 0  9994
2 37781  99.3279 229.7919 0000392  53.1242 306.9946 13.78793659654322
RASAT                   
1 37791U 11044D   24226.85511867  .00003280  00000+0  59822-3 0  9995
2 37791  98.0776 317.4457 0021769 158.6463 341.3785 14.66519455694595
SRMSAT                  
1 37841U 11058D   24226.95906017  .00001041  00000+0  42436-3 0  9998
2 37841  19.9709 167.3497 0011725  10.5982  48.4210 14.11166205662738
YAOGAN-13               
1 37941U 11072A   24226.85311864  .00057065  00000+0  10805-2 0  9995
2 37941  97.7215 214.2833 0004662 123.8666 236.3028 15.48173677605868
PLEIADES 1A             
1 38012U 11076F   24226.84438647  .00002289  00000+0  50237-3 0  9999
2 38012  98.2006 300.5809 0001642  91.9464  44.3036 14.58538568673999
ZIYUAN 1-02C (ZY 1-02C) 
1 38038U 11079A   24226.87094811  .00002537  00000+0  87059-3 0  9992
2 38038  98.4938 294.5127 0007295 148.0478 266.3126 14.36969992662659
ZIYUAN 3-1 (ZY 3-1)     
1 38046U 12001A   24226.81489081  .00030019  00000+0  90800-3 0  9992
2 38046  97.2418 287.5869 0002984 295.2220  64.8714 15.34150146699716
ARIRANG-3 (KOMPSAT-3)   
1 38338U 12025B   24226.86902940  .00003122  00000+0  61820-3 0  9996
2 38338  98.2635 173.2171 0011496  63.2134 297.0242 14.62977941653170
KANOPUS-V 1             
1 38707U 12039A   24227.08016608  .00099124  00000+0  14036-2 0  9996
2 38707  97.4934 168.0609 0005605 124.9287 235.2495 15.56136443670193
EXACTVIEW-1 (ADS-1B)    
1 38709U 12039C   24227.26399106  .00000765  00000+0  34979-3 0  9997
2 38709  98.9515 320.2177 0010090 311.7086  48.3228 14.24512015627023
SPOT 6                  
1 38755U 12047A   24226.83387919  .00002355  00000+0  51603-3 0  9998
2 38755  98.2184 292.8617 0001045 100.2555 259.8762 14.58574856635045
PLEIADES 1B             
1 39019U 12068A   24226.85254206  .00002292  00000+0  50219-3 0  9991
2 39019  98.1928 300.5594 0001438  94.5763 265.5600 14.58597330622848
GOKTURK 2               
1 39030U 12073A   24226.86481170  .00002554  00000+0  39520-3 0  9996
2 39030  97.7468  85.2286 0001668  66.9428 293.1957 14.74067938625430
LANDSAT 8               
1 39084U 13008A   24227.23105824  .00002115  00000+0  47950-3 0  9994
2 39084  98.2252 296.1299 0001673  98.4877 261.6511 14.57106390611862
SARAL                   
1 39086U 13009A   24226.91661246  .00000653  00000+0  25708-3 0  9998
2 39086  98.5526  51.2355 0003018 105.1367 255.0151 14.32468075599348
